OBJECT_NAME,OBJECT_ID,EPOCH,MEAN_MOTION,ECCENTRICITY,INCLINATION,RA_OF_ASC_NODE,ARG_OF_PERICENTER,MEAN_ANOMALY,EPHEMERIS_TYPE,CLASSIFICATION_TYPE,NORAD_CAT_ID,ELEMENT_SET_NO,REV_AT_EPOCH,BSTAR,MEAN_MOTION_DOT,MEAN_MOTION_DDOT
STARLINK-37715,2026-110C,2026-06-12T06:00:02.999808,15.43153677,.00020939,97.2843,359.6744,81.4834,86.1117,0,U,69126,999,486,-.63802983E-1,-.2499677E-1,0
STARLINK-37706,2026-110D,2026-06-12T06:00:02.999808,15.43494547,.00021318,97.2845,359.6806,72.8494,107.5163,0,U,69127,999,486,-.6283593E-1,-.2491477E-1,0
STARLINK-37723,2026-110E,2026-06-12T06:00:02.999808,15.43765935,.00020921,97.2848,359.6862,83.6791,109.9574,0,U,69128,999,486,-.61832125E-1,-.2476275E-1,0
STARLINK-37720,2026-110F,2026-06-12T06:01:10.001280,15.49205491,.00014744,97.2849,359.4439,88.4690,271.6730,0,U,69129,999,483,.70696005E-3,.3857E-3,0
STARLINK-37533,2026-110G,2026-06-12T06:00:02.999808,15.44804593,.00021593,97.2851,359.7026,92.1306,139.1526,0,U,69130,999,486,-.58812569E-1,-.244433E-1,0
STARLINK-37530,2026-110H,2026-06-12T06:00:02.999808,15.45141616,.00020951,97.2844,359.7087,84.1813,159.7692,0,U,69131,999,486,-.59021876E-1,-.247729E-1,0
STARLINK-37660,2026-110J,2026-06-12T06:00:02.999808,15.49255025,.00006316,97.2936,359.6201,114.4514,295.6499,0,U,69132,999,486,-.38126566E-3,-.20819E-3,0
STARLINK-37633,2026-110K,2026-06-12T06:00:02.999808,15.49211891,.00011594,97.2840,359.6349,124.9833,316.0933,0,U,69133,999,486,.61307818E-3,.33421E-3,0
STARLINK-37361,2026-110L,2026-06-12T06:00:02.999808,15.46191793,.00022153,97.2846,359.7240,92.3153,188.3212,0,U,69134,999,486,-.56751729E-1,-.2470668E-1,0
STARLINK-37372,2026-110M,2026-06-12T06:00:02.999808,15.49161543,.00012114,97.2840,359.6433,95.1628,5.2080,0,U,69135,999,486,.31656851E-3,.17148E-3,0
STARLINK-37531,2026-110N,2026-06-12T06:00:02.999808,15.49165836,.00020513,97.2840,359.7152,67.7049,187.8944,0,U,69136,999,486,.81941552E-3,.44694E-3,0
STARLINK-37662,2026-110P,2026-06-12T06:00:02.999808,15.49276306,.00015543,97.2841,359.6437,66.1541,35.9814,0,U,69137,999,486,-.24316724E-2,-.130577E-2,0
STARLINK-37658,2026-110Q,2026-06-12T06:19:19.578720,15.49217600,.00009085,97.2841,359.5811,109.5891,250.5458,0,U,69138,999,484,.70249524E-3,.3834E-3,0
STARLINK-37659,2026-110R,2026-06-12T06:30:24.367104,15.49224569,.0001355,97.2847,359.5711,83.8928,276.2477,0,U,69139,999,484,.77831712E-3,.42522E-3,0
STARLINK-37653,2026-110S,2026-06-12T06:33:57.245472,15.49224336,.00010309,97.2850,359.5681,88.6457,271.4912,0,U,69140,999,484,.73105495E-3,.3992E-3,0
STARLINK-37654,2026-110T,2026-06-12T06:00:02.999808,15.49170023,.00016559,97.2840,359.6471,93.1745,18.5585,0,U,69141,999,486,.27378894E-4,.1398E-4,0
STARLINK-37655,2026-110U,2026-06-12T06:00:02.999808,15.49171767,.00011102,97.2843,359.6949,59.8830,163.1039,0,U,69142,999,486,.30707952E-3,.16636E-3,0
STARLINK-37636,2026-110V,2026-06-12T06:00:02.999808,15.49361873,.00015695,97.2833,359.7716,94.9818,291.3292,0,U,69143,999,486,-.52688429E-1,-.2551488E-1,0
STARLINK-37638,2026-110W,2026-06-12T06:00:02.999808,15.49626161,.00015336,97.2845,359.7737,81.8000,317.8580,0,U,69144,999,486,-.530927E-1,-.259009E-1,0
STARLINK-37657,2026-110X,2026-06-12T06:00:02.999808,15.49167675,.00019775,97.2841,359.6478,90.1655,20.3837,0,U,69145,999,491,.18149433E-3,.9786E-4,0
STARLINK-37639,2026-110Y,2026-06-12T06:00:02.999808,15.50469896,.00016275,97.2839,359.7830,83.5199,336.2184,0,U,69146,999,491,-.51305646E-1,-.2580475E-1,0
STARLINK-37661,2026-110Z,2026-06-12T06:02:24.232704,15.49184847,.00017077,97.2844,359.5966,95.3126,264.8321,0,U,69147,999,484,.54187508E-3,.29487E-3,0
STARLINK-37395,2026-111A,2026-06-12T03:35:20.517792,15.81365943,.00125618,53.1576,176.9081,207.5165,152.5195,0,U,69148,999,346,.1988454E-2,.422736E-2,0
STARLINK-37346,2026-111B,2026-06-12T06:00:02.999808,15.64800655,.00015732,53.1590,176.5798,75.2136,50.0788,0,U,69149,999,475,-.30205477E-1,-.2599485E-1,0
STARLINK-37332,2026-111C,2026-06-12T06:00:02.999808,15.56122302,.00010015,53.1596,176.7801,79.2927,307.4908,0,U,69150,999,475,-.40895532E-1,-.2575455E-1,0
STARLINK-37297,2026-111D,2026-06-12T06:35:53.907936,15.80257213,.00085911,53.1577,176.2666,176.3264,183.7823,0,U,69151,999,348,-.12307174E-2,-.231369E-2,0
STARLINK-37317,2026-111E,2026-06-12T05:01:52.597920,15.80962290,.0001139,53.1572,176.5694,138.5590,221.5520,0,U,69152,999,347,.11198729E-2,.227173E-2,0
STARLINK-37374,2026-111F,2026-06-12T06:00:02.999808,15.51548391,.00012226,53.1592,176.9292,110.2549,202.4782,0,U,69153,999,475,-.531272E-1,-.2795425E-1,0
STARLINK-37235,2026-111G,2026-06-12T06:00:02.999808,15.49276622,.00009192,53.1591,177.1692,84.9364,109.7878,0,U,69154,999,475,.44904867E-3,.24576E-3,0
STARLINK-37329,2026-111H,2026-06-12T06:33:33.900192,15.80934530,.00009875,53.1574,176.2552,65.6645,294.4481,0,U,69155,999,348,.87750232E-3,.176578E-2,0
