STARLINK-37715          
1 69126U 26110C   26163.25003472 -.02499677  00000+0 -63803-1 0  9991
2 69126  97.2843 359.6744 0002093  81.4834  86.1117 15.43153677  4863
STARLINK-37706          
1 69127U 26110D   26163.25003472 -.02491477  00000+0 -62836-1 0  9997
2 69127  97.2845 359.6806 0002131  72.8494 107.5163 15.43494547  4867
STARLINK-37723          
1 69128U 26110E   26163.25003472 -.02476275  00000+0 -61832-1 0  9992
2 69128  97.2848 359.6862 0002092  83.6791 109.9574 15.43765935  4863
STARLINK-37720          
1 69129U 26110F   26163.25081020  .00038570  00000+0  70696-3 0  9996
2 69129  97.2849 359.4439 0001474  88.4690 271.6730 15.49205491  4837
STARLINK-37533          
1 69130U 26110G   26163.25003472 -.02444330  00000+0 -58813-1 0  9997
2 69130  97.2851 359.7026 0002159  92.1306 139.1526 15.44804593  4861
STARLINK-37530          
1 69131U 26110H   26163.25003472 -.02477290  00000+0 -59022-1 0  9992
2 69131  97.2844 359.7087 0002095  84.1813 159.7692 15.45141616  4867
STARLINK-37660          
1 69132U 26110J   26163.25003472 -.00020819  00000+0 -38127-3 0  9997
2 69132  97.2936 359.6201 0000631 114.4514 295.6499 15.49255025  4865
STARLINK-37633          
1 69133U 26110K   26163.25003472  .00033421  00000+0  61308-3 0  9996
2 69133  97.2840 359.6349 0001159 124.9833 316.0933 15.49211891  4863
STARLINK-37361          
1 69134U 26110L   26163.25003472 -.02470668  00000+0 -56752-1 0  9994
2 69134  97.2846 359.7240 0002215  92.3153 188.3212 15.46191793  4863
STARLINK-37372          
1 69135U 26110M   26163.25003472  .00017148  00000+0  31657-3 0  9990
2 69135  97.2840 359.6433 0001211  95.1628   5.2080 15.49161543  4867
STARLINK-37531          
1 69136U 26110N   26163.25003472  .00044694  00000+0  81942-3 0  9999
2 69136  97.2840 359.7152 0002051  67.7049 187.8944 15.49165836  4867
STARLINK-37662          
1 69137U 26110P   26163.25003472 -.00130577  00000+0 -24317-2 0  9990
2 69137  97.2841 359.6437 0001554  66.1541  35.9814 15.49276306  4865
STARLINK-37658          
1 69138U 26110Q   26163.26342105  .00038340  00000+0  70250-3 0  9992
2 69138  97.2841 359.5811 0000908 109.5891 250.5458 15.49217600  4842
STARLINK-37659          
1 69139U 26110R   26163.27111536  .00042522  00000+0  77832-3 0  9996
2 69139  97.2847 359.5711 0001355  83.8928 276.2477 15.49224569  4848
STARLINK-37653          
1 69140U 26110S   26163.27357923  .00039920  00000+0  73105-3 0  9997
2 69140  97.2850 359.5681 0001030  88.6457 271.4912 15.49224336  4843
STARLINK-37654          
1 69141U 26110T   26163.25003472  .00001398  00000+0  27379-4 0  9994
2 69141  97.2840 359.6471 0001655  93.1745  18.5585 15.49170023  4866
STARLINK-37655          
1 69142U 26110U   26163.25003472  .00016636  00000+0  30708-3 0  9995
2 69142  97.2843 359.6949 0001110  59.8830 163.1039 15.49171767  4867
STARLINK-37636          
1 69143U 26110V   26163.25003472 -.02551488  00000+0 -52688-1 0  9998
2 69143  97.2833 359.7716 0001569  94.9818 291.3292 15.49361873  4868
STARLINK-37638          
1 69144U 26110W   26163.25003472 -.02590090  00000+0 -53093-1 0  9992
2 69144  97.2845 359.7737 0001533  81.8000 317.8580 15.49626161  4862
STARLINK-37657          
1 69145U 26110X   26163.25003472  .00009786  00000+0  18149-3 0  9991
2 69145  97.2841 359.6478 0001977  90.1655  20.3837 15.49167675  4918
STARLINK-37639          
1 69146U 26110Y   26163.25003472 -.02580475  00000+0 -51306-1 0  9995
2 69146  97.2839 359.7830 0001627  83.5199 336.2184 15.50469896  4916
STARLINK-37661          
1 69147U 26110Z   26163.25166936  .00029487  00000+0  54188-3 0  9991
2 69147  97.2844 359.5966 0001707  95.3126 264.8321 15.49184847  4840
STARLINK-37395          
1 69148U 26111A   26163.14954303  .00422736  00000+0  19885-2 0  9992
2 69148  53.1576 176.9081 0012561 207.5165 152.5195 15.81365943  3466
STARLINK-37346          
1 69149U 26111B   26163.25003472 -.02599485  00000+0 -30205-1 0  9995
2 69149  53.1590 176.5798 0001573  75.2136  50.0788 15.64800655  4751
STARLINK-37332          
1 69150U 26111C   26163.25003472 -.02575455  00000+0 -40896-1 0  9995
2 69150  53.1596 176.7801 0001001  79.2927 307.4908 15.56122302  4754
STARLINK-37297          
1 69151U 26111D   26163.27492949 -.00231369  00000+0 -12307-2 0  9997
2 69151  53.1577 176.2666 0008591 176.3264 183.7823 15.80257213  3489
STARLINK-37317          
1 69152U 26111E   26163.20963655  .00227173  00000+0  11199-2 0  9992
2 69152  53.1572 176.5694 0001139 138.5590 221.5520 15.80962290  3474
STARLINK-37374          
1 69153U 26111F   26163.25003472 -.02795425  00000+0 -53127-1 0  9990
2 69153  53.1592 176.9292 0001222 110.2549 202.4782 15.51548391  4759
STARLINK-37235          
1 69154U 26111G   26163.25003472  .00024576  00000+0  44905-3 0  9995
2 69154  53.1591 177.1692 0000919  84.9364 109.7878 15.49276622  4757
STARLINK-37329          
1 69155U 26111H   26163.27330903  .00176578  00000+0  87750-3 0  9995
2 69155  53.1574 176.2552 0000987  65.6645 294.4481 15.80934530  3482
